CTC2_L_00269016-03
1 10062U 22998FV  26075.70043981  .00000000  00000+0  00000-0 0  9990
2 10062  80.0000 180.0000 0000000   0.0000   0.0000 13.98210060    19
CTC2_L_00269016-04
1 10063U 23248S   26075.70043981  .00000000  00000+0  00000-0 0  9990
2 10063  80.0000 180.0000 0000000   0.0000  90.0000 13.98210060    19
CTC2_L_00269017-01
1 10064U 24769QI  26075.70043981  .00000000  00000+0  00000-0 0  9990
2 10064  80.0000 192.0000 0000000   0.0000 192.0000 13.98210060    16
CTC2_L_00269017-02
1 10065U 26285SV  26075.70043981  .00000000  00000+0  00000-0 0  9996
2 10065  80.0000 192.0000 0000000   0.0000 282.0000 13.98210060    17
CTC2_L_00269017-03
1 10066U 26299S   26075.70043981  .00000000  00000+0  00000-0 0  9992
2 10066  80.0000 192.0000 0000000   0.0000  12.0000 13.98210060    19
CTC2_L_00269017-04
1 10067U 23507KH  26075.70043981  .00000000  00000+0  00000-0 0  9992
2 10067  80.0000 192.0000 0000000   0.0000 102.0000 13.98210060    10
CTC2_L_00269018-01
1 10068U 24820LP  26075.70043981  .00000000  00000+0  00000-0 0  9992
2 10068  80.0000 204.0000 0000000   0.0000 204.0000 13.98210060    18
CTC2_L_00269018-02
1 10069U 23123X   26075.70043981  .00000000  00000+0  00000-0 0  9998
2 10069  80.0000 204.0000 0000000   0.0000 294.0000 13.98210060    18
CTC2_L_00269018-03
1 10070U 22101SU  26075.70043981  .00000000  00000+0  00000-0 0  9995
2 10070  80.0000 204.0000 0000000   0.0000  24.0000 13.98210060    11
CTC2_L_00269018-04
1 10071U 26580QR  26075.70043981  .00000000  00000+0  00000-0 0  9991
2 10071  80.0000 204.0000 0000000   0.0000 114.0000 13.98210060    12
CTC2_L_00269019-01
1 10072U 24862ML  26075.70043981  .00000000  00000+0  00000-0 0  9993
2 10072  80.0000 216.0000 0000000   0.0000 216.0000 13.98210060    19
CTC2_L_00269019-02
1 10073U 23915UX  26075.70043981  .00000000  00000+0  00000-0 0  9992
2 10073  80.0000 216.0000 0000000   0.0000 306.0000 13.98210060    10
CTC2_L_00269019-03
1 10074U 26020FT  26075.70043981  .00000000  00000+0  00000-0 0  9993
2 10074  80.0000 216.0000 0000000   0.0000  36.0000 13.98210060    11
CTC2_L_00269019-04
1 10075U 24205XF  26075.70043981  .00000000  00000+0  00000-0 0  9997
2 10075  80.0000 216.0000 0000000   0.0000 126.0000 13.98210060    12
CTC2_L_00269020-01
1 10076U 22326AV  26075.70043981  .00000000  00000+0  00000-0 0  9990
2 10076  80.0000 228.0000 0000000   0.0000 228.0000 13.98210060    19
CTC2_L_00269020-02
1 10077U 23857WY  26075.70043981  .00000000  00000+0  00000-0 0  9991
2 10077  80.0000 228.0000 0000000   0.0000 318.0000 13.98210060    10
CTC2_L_00269020-03
1 10078U 24840HD  26075.70043981  .00000000  00000+0  00000-0 0  9995
2 10078  80.0000 228.0000 0000000   0.0000  48.0000 13.98210060    11
CTC2_L_00269020-04
1 10079U 24673EI  26075.70043981  .00000000  00000+0  00000-0 0  9990
2 10079  80.0000 228.0000 0000000   0.0000 138.0000 13.98210060    12
CTC2_L_00269021-01
1 10080U 24189EL  26075.70043981  .00000000  00000+0  00000-0 0  9994
2 10080  80.0000 240.0000 0000000   0.0000 240.0000 13.98210060    12
CTC2_L_00269021-02
1 10081U 26093LF  26075.70043981  .00000000  00000+0  00000-0 0  9991
2 10081  80.0000 240.0000 0000000   0.0000 330.0000 13.98210060    13
CTC2_L_00269021-03
1 10082U 24604HO  26075.70043981  .00000000  00000+0  00000-0 0  9998
2 10082  80.0000 240.0000 0000000   0.0000  60.0000 13.98210060    14
CTC2_L_00269021-04
1 10083U 22532NW  26075.70043981  .00000000  00000+0  00000-0 0  9997
2 10083  80.0000 240.0000 0000000   0.0000 150.0000 13.98210060    15
CTC2_L_00269022-01
1 10084U 25700QJ  26075.70043981  .00000000  00000+0  00000-0 0  9998
2 10084  80.0000 252.0000 0000000   0.0000 252.0000 13.98210060    12
CTC2_L_00269022-02
1 10085U 26748FA  26075.70043981  .00000000  00000+0  00000-0 0  9992
2 10085  80.0000 252.0000 0000000   0.0000 342.0000 13.98210060    13
CTC2_L_00269022-03
1 10086U 26994LE  26075.70043981  .00000000  00000+0  00000-0 0  9996
2 10086  80.0000 252.0000 0000000   0.0000  72.0000 13.98210060    14
CTC2_L_00269022-04
1 10087U 26376GG  26075.70043981  .00000000  00000+0  00000-0 0  9991
2 10087  80.0000 252.0000 0000000   0.0000 162.0000 13.98210060    15
CTC2_L_00269023-01
1 10088U 23696WC  26075.70043981  .00000000  00000+0  00000-0 0  9994
2 10088  80.0000 264.0000 0000000   0.0000 264.0000 13.98210060    12
CTC2_L_00269023-02
1 10089U 22522TF  26075.70043981  .00000000  00000+0  00000-0 0  9992
2 10089  80.0000 264.0000 0000000   0.0000 354.0000 13.98210060    13
CTC2_L_00269023-03
1 10090U 23331ZU  26075.70043981  .00000000  00000+0  00000-0 0  9993
2 10090  80.0000 264.0000 0000000   0.0000  84.0000 13.98210060    15
CTC2_L_00269023-04
1 10091U 23367YW  26075.70043981  .00000000  00000+0  00000-0 0  9993
2 10091  80.0000 264.0000 0000000   0.0000 174.0000 13.98210060    16
CTC2_L_00269024-01
1 10092U 25125AT  26075.70043981  .00000000  00000+0  00000-0 0  9998
2 10092  80.0000 276.0000 0000000   0.0000 276.0000 13.98210060    13
CTC2_L_00269024-02
1 10093U 24584V   26075.70043981  .00000000  00000+0  00000-0 0  9997
2 10093  80.0000 276.0000 0000000   0.0000   6.0000 13.98210060    15
CTC2_L_00269024-03
1 10094U 25736VR  26075.70043981  .00000000  00000+0  00000-0 0  9998
2 10094  80.0000 276.0000 0000000   0.0000  96.0000 13.98210060    15
CTC2_L_00269024-04
1 10095U 24121HB  26075.70043981  .00000000  00000+0  00000-0 0  9996
2 10095  80.0000 276.0000 0000000   0.0000 186.0000 13.98210060    16
CTC2_L_00269025-01
1 10096U 25357IX  26075.70043981  .00000000  00000+0  00000-0 0  9999
2 10096  80.0000 288.0000 0000000   0.0000 288.0000 13.98210060    13
CTC2_L_00269025-02
1 10097U 24446BI  26075.70043981  .00000000  00000+0  00000-0 0  9998
2 10097  80.0000 288.0000 0000000   0.0000  18.0000 13.98210060    15
CTC2_L_00269025-03
1 10098U 23953EV  26075.70043981  .00000000  00000+0  00000-0 0  9991
2 10098  80.0000 288.0000 0000000   0.0000 108.0000 13.98210060    16
CTC2_L_00269025-04
1 10099U 26427EV  26075.70043981  .00000000  00000+0  00000-0 0  9991
2 10099  80.0000 288.0000 0000000   0.0000 198.0000 13.98210060    16
CTC2_L_00269026-01
1 10100U 25254MD  26075.70043981  .00000000  00000+0  00000-0 0  9991
2 10100  80.0000 300.0000 0000000   0.0000 300.0000 13.98210060    19
CTC2_L_00269026-02
1 10101U 26322LP  26075.70043981  .00000000  00000+0  00000-0 0  9999
2 10101  80.0000 300.0000 0000000   0.0000  30.0000 13.98210060    10
CTC2_L_00269026-03
1 10102U 24167KS  26075.70043981  .00000000  00000+0  00000-0 0  9995
2 10102  80.0000 300.0000 0000000   0.0000 120.0000 13.98210060    11
CTC2_L_00269026-04
1 10103U 22923TE  26075.70043981  .00000000  00000+0  00000-0 0  9994
2 10103  80.0000 300.0000 0000000   0.0000 210.0000 13.98210060    12
CTC2_L_00269027-01
1 10104U 25415VG  26075.70043981  .00000000  00000+0  00000-0 0  9994
2 10104  80.0000 312.0000 0000000   0.0000 312.0000 13.98210060    19
CTC2_L_00269027-02
1 10105U 26088IR  26075.70043981  .00000000  00000+0  00000-0 0  9992
2 10105  80.0000 312.0000 0000000   0.0000  42.0000 13.98210060    10
CTC2_L_00269027-03
1 10106U 26544TW  26075.70043981  .00000000  00000+0  00000-0 0  9990
2 10106  80.0000 312.0000 0000000   0.0000 132.0000 13.98210060    11
CTC2_L_00269027-04
1 10107U 26530TL  26075.70043981  .00000000  00000+0  00000-0 0  9996
2 10107  80.0000 312.0000 0000000   0.0000 222.0000 13.98210060    12
CTC2_L_00269028-01
1 10108U 22440JI  26075.70043981  .00000000  00000+0  00000-0 0  9993
2 10108  80.0000 324.0000 0000000   0.0000 324.0000 13.98210060    19
CTC2_L_00269028-02
1 10109U 26753OI  26075.70043981  .00000000  00000+0  00000-0 0  9995
2 10109  80.0000 324.0000 0000000   0.0000  54.0000 13.98210060    10
CTC2_L_00269028-03
1 10110U 23063CE  26075.70043981  .00000000  00000+0  00000-0 0  9998
2 10110  80.0000 324.0000 0000000   0.0000 144.0000 13.98210060    12
CTC2_L_00269028-04
1 10111U 22589JG  26075.70043981  .00000000  00000+0  00000-0 0  9991
2 10111  80.0000 324.0000 0000000   0.0000 234.0000 13.98210060    13
CTC2_L_00269029-01
1 10112U 22260RN  26075.70043981  .00000000  00000+0  00000-0 0  9998
2 10112  80.0000 336.0000 0000000   0.0000 336.0000 13.98210060    10
CTC2_L_00269029-02
1 10113U 25308TA  26075.70043981  .00000000  00000+0  00000-0 0  9995
2 10113  80.0000 336.0000 0000000   0.0000  66.0000 13.98210060    11
CTC2_L_00269029-03
1 10114U 23928OR  26075.70043981  .00000000  00000+0  00000-0 0  9992
2 10114  80.0000 336.0000 0000000   0.0000 156.0000 13.98210060    12
CTC2_L_00269029-04
1 10115U 22513SG  26075.70043981  .00000000  00000+0  00000-0 0  9992
2 10115  80.0000 336.0000 0000000   0.0000 246.0000 13.98210060    13
CTC2_L_00269030-01
1 10116U 24748TQ  26075.70043981  .00000000  00000+0  00000-0 0  9995
2 10116  80.0000 348.0000 0000000   0.0000 348.0000 13.98210060    10
CTC2_L_00269030-02
1 10117U 23025OD  26075.70043981  .00000000  00000+0  00000-0 0  9993
2 10117  80.0000 348.0000 0000000   0.0000  78.0000 13.98210060    11
CTC2_L_00269030-03
1 10118U 22292BO  26075.70043981  .00000000  00000+0  00000-0 0  9999
2 10118  80.0000 348.0000 0000000   0.0000 168.0000 13.98210060    12
CTC2_L_00269030-04
1 10119U 22560UM  26075.70043981  .00000000  00000+0  00000-0 0  9998
2 10119  80.0000 348.0000 0000000   0.0000 258.0000 13.98210060    13
